NORAD_CAT_ID,OBJECT_NAME,OBJECT_TYPE,EPOCH,MEAN_MOTION,ECCENTRICITY,INCLINATION,RA_OF_ASC_NODE,ARG_OF_PERICENTER,MEAN_ANOMALY,BSTAR,MEAN_MOTION_DOT,MEAN_MOTION_DDOT,TLE_LINE0,TLE_LINE1,TLE_LINE2,SEMIMAJOR_AXIS,PERIOD,APOGEE,PERIGEE,DECAYED
49179.0,STARLINK-3043,PAYLOAD,2022-01-03 14:00:01,15.69759428,0.0003286,69.999,173.4843,273.6611,198.5454,-0.00021792,-0.00026156,0.0,0 STARLINK-3043,1 49179U 21082BB  22003.58334491 -.00026156  00000-0 -21792-3 0  9993,2 49179  69.9990 173.4843 0003286 273.6611 198.5454 15.69759428  3688,6737.722,91.734,361.801,357.37300000000016,0.0
49179.0,STARLINK-3043,PAYLOAD,2022-01-03 22:00:00,15.6972764,0.0003348,69.9987,172.5473,280.0483,275.2896,0.00054039,0.00064739,0.0,0 STARLINK-3043,1 49179U 21082BB  22003.91667824  .00064739  00000-0  54039-3 0  9996,2 49179  69.9987 172.5473 0003348 280.0483 275.2896 15.69727640  3685,6737.813,91.736,361.934,357.422,0.0
49179.0,STARLINK-3043,PAYLOAD,2022-01-04 14:00:01,15.69838771,0.0003509,69.9994,170.6733,274.3709,87.2277,-0.0010831,-0.00128035,0.0,0 STARLINK-3043,1 49179U 21082BB  22004.58334491 -.00128035  00000-0 -10831-2 0  9994,2 49179  69.9994 170.6733 0003509 274.3709  87.2277 15.69838771  3689,6737.495,91.729,361.724,356.996,0.0
49179.0,STARLINK-3043,PAYLOAD,2022-01-04 20:06:40,15.69784076,0.0003322,69.9994,169.9575,277.9234,82.1584,0.0001591,0.0001885,0.0,0 STARLINK-3043,1 49179U 21082BB  22004.83796381  .00018850  00000-0  15910-3 0  9997,2 49179  69.9994 169.9575 0003322 277.9234  82.1584 15.69784076 17799,6737.651999999999,91.732,361.755,357.279,0.0
49179.0,STARLINK-3043,PAYLOAD,2022-01-05 06:00:00,15.6970924,0.000355,69.9996,168.7995,274.6662,253.2267,0.00060995,0.0007312,0.0,0 STARLINK-3043,1 49179U 21082BB  22005.25001157  .00073120  00000-0  60995-3 0  9998,2 49179  69.9996 168.7995 0003550 274.6662 253.2267 15.69709240 17852,6737.866,91.737,362.12300000000016,357.339,0.0
49179.0,STARLINK-3043,PAYLOAD,2022-01-05 14:00:01,15.69805842,0.0003486,69.9998,167.8628,275.116,335.8744,-0.0010617,-0.00125377,0.0,0 STARLINK-3043,1 49179U 21082BB  22005.58334491 -.00125377  00000-0 -10617-2 0  9993,2 49179  69.9998 167.8628 0003486 275.1160 335.8744 15.69805842  3682,6737.59,91.731,361.80300000000005,357.106,0.0
49179.0,STARLINK-3043,PAYLOAD,2022-01-05 22:00:00,15.69695972,0.000342,69.9993,166.9258,281.8175,52.3214,0.00037692,0.00044925,0.0,0 STARLINK-3043,1 49179U 21082BB  22005.91667824  .00044925  00000-0  37692-3 0  9999,2 49179  69.9993 166.9258 0003420 281.8175  52.3214 15.69695972 17964,6737.904,91.738,362.073,357.465,0.0
49179.0,STARLINK-3043,PAYLOAD,2022-01-06 14:00:01,15.69751213,0.0003415,69.9999,165.0518,276.4107,223.8886,-0.00022722,-0.00027251,0.0,0 STARLINK-3043,1 49179U 21082BB  22006.58334491 -.00027251  00000-0 -22722-3 0  9997,2 49179  69.9999 165.0518 0003415 276.4107 223.8886 15.69751213 18061,6737.746,91.734,361.912,357.31,0.0
49179.0,STARLINK-3043,PAYLOAD,2022-01-06 22:00:00,15.6973584,0.0003416,69.9997,164.1148,281.7531,301.6674,0.00030296,0.0003609,0.0,0 STARLINK-3043,1 49179U 21082BB  22006.91667824  .00036090  00000-0  30296-3 0  9997,2 49179  69.9997 164.1148 0003416 281.7531 301.6674 15.69735840  3689,6737.79,91.735,361.956,357.353,0.0
49179.0,STARLINK-3043,PAYLOAD,2022-01-07 06:00:00,15.69716105,0.0003297,69.9998,163.1782,276.3647,30.1906,0.00069218,0.00083125,0.0,0 STARLINK-3043,1 49179U 21082BB  22007.25001157  .00083125  00000-0  69218-3 0  9993,2 49179  69.9998 163.1782 0003297 276.3647  30.1906 15.69716105 18173,6737.846,91.736,361.9330000000001,357.49,0.0
49179.0,STARLINK-3043,PAYLOAD,2022-01-07 14:00:01,15.69796172,0.0003397,70.0,162.2414,277.7166,111.9546,-0.00034249,-0.00040978,0.0,0 STARLINK-3043,1 49179U 21082BB  22007.58334491 -.00040978  00000-0 -34249-3 0  9996,2 49179  70.0000 162.2414 0003397 277.7166 111.9546 15.69796172  3695,6737.6169999999975,91.732,361.771,357.1930000000001,0.0
49179.0,STARLINK-3043,PAYLOAD,2022-01-07 22:00:00,15.69777329,0.0003483,69.9994,161.3043,282.7475,190.0858,0.0001068,0.00012571,0.0,0 STARLINK-3043,1 49179U 21082BB  22007.91667824  .00012571  00000-0  10680-3 0  9991,2 49179  69.9994 161.3043 0003483 282.7475 190.0858 15.69777329  3672,6737.670999999999,91.733,361.883,357.189,0.0
49179.0,STARLINK-3043,PAYLOAD,2022-01-08 02:00:01,15.69800008,0.0003351,69.9993,160.8358,280.3868,54.0929,-0.00032583,-0.00039009,0.0,0 STARLINK-3043,1 49179U 21082BB  22008.08335648 -.00039009  00000-0 -32583-3 0  9999,2 49179  69.9993 160.8358 0003351 280.3868  54.0929 15.69800008 18303,6737.606,91.731,361.729,357.213,0.0
49179.0,STARLINK-3043,PAYLOAD,2022-01-08 14:00:01,15.69770811,0.0003212,69.9996,159.4302,279.047,0.1325,-0.00036324,-0.00043388,0.0,0 STARLINK-3043,1 49179U 21082BB  22008.58334491 -.00043388  00000-0 -36324-3 0  9991,2 49179  69.9996 159.4302 0003212 279.0470   0.1325 15.69770811  3662,6737.69,91.733,361.719,357.391,0.0
49179.0,STARLINK-3043,PAYLOAD,2022-01-08 22:00:00,15.69755861,0.0003256,69.9993,158.4931,285.1847,77.1297,0.00016376,0.00019387,0.0,0 STARLINK-3043,1 49179U 21082BB  22008.91667824  .00019387  00000-0  16376-3 0  9992,2 49179  69.9993 158.4931 0003256 285.1847  77.1297 15.69755861 18431,6737.733,91.734,361.791,357.404,0.0
49179.0,STARLINK-3043,PAYLOAD,2022-01-09 14:00:01,15.69756008,0.0003477,69.9997,156.6195,280.7033,247.9058,-8.920299999999999e-05,-0.0001085,0.0,0 STARLINK-3043,1 49179U 21082BB  22009.58334491 -.00010850  00000-0 -89203-4 0  9995,2 49179  69.9997 156.6195 0003477 280.7033 247.9058 15.69756008 18537,6737.732,91.734,361.94,357.254,0.0
49179.0,STARLINK-3043,PAYLOAD,2022-01-09 22:00:00,15.6976018,0.00036,69.999,155.6824,284.288,327.4506,0.00021313,0.0002532,0.0,0 STARLINK-3043,1 49179U 21082BB  22009.91667824  .00025320  00000-0  21313-3 0  9994,2 49179  69.9990 155.6824 0003600 284.2880 327.4506 15.69760180  3672,6737.72,91.734,362.011,357.16,0.0
49179.0,STARLINK-3043,PAYLOAD,2022-01-10 06:00:00,15.69756376,0.0003598,69.999,154.7456,277.7548,57.1368,-6.942e-05,-8.494e-05,0.0,0 STARLINK-3043,1 49179U 21082BB  22010.25001157 -.00008494  00000-0 -69420-4 0  9991,2 49179  69.9990 154.7456 0003598 277.7548  57.1368 15.69756376 18645,6737.731,91.734,362.02,357.172,0.0
49179.0,STARLINK-3043,PAYLOAD,2022-01-10 14:00:01,15.69754167,0.0003687,69.9991,153.8085,280.5088,137.509,-0.00094101,-0.00111104,0.0,0 STARLINK-3043,1 49179U 21082BB  22010.58334491 -.00111104  00000-0 -94101-3 0  9993,2 49179  69.9991 153.8085 0003687 280.5088 137.5090 15.69754167 18690,6737.736999999999,91.734,362.087,357.11800000000005,0.0
49179.0,STARLINK-3043,PAYLOAD,2022-01-10 22:00:00,15.69695544,0.0003533,69.9988,152.8715,285.5803,215.5182,5.89e-05,6.809e-05,0.0,0 STARLINK-3043,1 49179U 21082BB  22010.91667824  .00006809  00000-0  58900-4 0  9990,2 49179  69.9988 152.8715 0003533 285.5803 215.5182 15.69695544 18743,6737.905,91.738,362.151,357.39,0.0
49179.0,STARLINK-3043,PAYLOAD,2022-01-11 14:00:01,15.69739631,0.000358,69.9994,150.9979,282.4858,24.7558,-9.9635e-05,-0.00012085,0.0,0 STARLINK-3043,1 49179U 21082BB  22011.58334491 -.00012085  00000-0 -99635-4 0  9990,2 49179  69.9994 150.9979 0003580 282.4858  24.7558 15.69739631  3689,6737.779,91.735,362.056,357.232,0.0
49179.0,STARLINK-3043,PAYLOAD,2022-01-11 22:00:00,15.69752807,0.0003688,69.9988,150.0609,286.0494,104.3006,6.0289e-05,6.992e-05,0.0,0 STARLINK-3043,1 49179U 21082BB  22011.91667824  .00006992  00000-0  60289-4 0  9997,2 49179  69.9988 150.0609 0003688 286.0494 104.3006 15.69752807 18902,6737.741,91.734,362.091,357.121,0.0
49179.0,STARLINK-3043,PAYLOAD,2022-01-12 14:00:01,15.69801021,0.0003597,69.999,148.1869,283.2771,273.3374,-0.00062387,-0.00074195,0.0,0 STARLINK-3043,1 49179U 21082BB  22012.58334491 -.00074195  00000-0 -62387-3 0  9994,2 49179  69.9990 148.1869 0003597 283.2771 273.3374 15.69801021  3695,6737.603,91.731,361.892,357.045,0.0
49179.0,STARLINK-3043,PAYLOAD,2022-01-12 22:00:00,15.6975315,0.0003441,69.9987,147.2499,287.9008,351.8803,-0.00021288,-0.00025552,0.0,0 STARLINK-3043,1 49179U 21082BB  22012.91667824 -.00025552  00000-0 -21288-3 0  9998,2 49179  69.9987 147.2499 0003441 287.9008 351.8803 15.69753150 19068,6737.74,91.734,361.924,357.287,0.0
49179.0,STARLINK-3043,PAYLOAD,2022-01-13 14:00:01,15.69800126,0.0003597,69.9996,145.3762,284.9778,161.05200000000005,-0.00085699,-0.00101508,0.0,0 STARLINK-3043,1 49179U 21082BB  22013.58334491 -.00101508  00000-0 -85699-3 0  9995,2 49179  69.9996 145.3762 0003597 284.9778 161.0520 15.69800126 19167,6737.606,91.731,361.894,357.047,0.0
49179.0,STARLINK-3043,PAYLOAD,2022-01-13 22:00:00,15.69743634,0.0003778,69.9991,144.4392,286.6959,242.4818,-0.00014202,-0.00017129,0.0,0 STARLINK-3043,1 49179U 21082BB  22013.91667824 -.00017129  00000-0 -14202-3 0  9998,2 49179  69.9991 144.4392 0003778 286.6959 242.4818 15.69743634 19212,6737.768,91.735,362.17800000000005,357.087,0.0
49179.0,STARLINK-3043,PAYLOAD,2022-01-14 14:00:01,15.69765423,0.0003765,69.9994,142.5653,285.1648,50.25100000000001,2.4006e-06,7.4e-07,0.0,0 STARLINK-3043,1 49179U 21082BB  22014.58334491  .00000074  00000-0  24006-5 0  9997,2 49179  69.9994 142.5653 0003765 285.1648  50.2510 15.69765423 19325,6737.705,91.733,362.107,357.033,0.0
49179.0,STARLINK-3043,PAYLOAD,2022-01-14 22:00:00,15.69809176,0.0003662,69.9992,141.6283,289.0224,129.5406,-0.00092528,-0.00109519,0.0,0 STARLINK-3043,1 49179U 21082BB  22014.91667824 -.00109519  00000-0 -92528-3 0  9991,2 49179  69.9992 141.6283 0003662 289.0224 129.5406 15.69809176  3692,6737.58,91.731,361.912,356.978,0.0
49179.0,STARLINK-3043,PAYLOAD,2022-01-15 14:00:01,15.6974303,0.000341,70.0002,139.7545,289.2141,295.7146,0.00024452,0.00029071,0.0,0 STARLINK-3043,1 49179U 21082BB  22015.58335648  .00029071  00000-0  24452-3 0  9994,2 49179  70.0002 139.7545 0003410 289.2141 295.7146 15.69743030 19484,6737.769,91.735,361.932,357.337,0.0
